{"type": "FeatureCollection", "features": [ {"type": "Feature", "properties": {"norad_id": 40118, "name": "GAOFEN-2", "group": "resource", "lat": 49.1505480092231, "lon": 45.17912139203899, "alt_km": 618.1878835178222, "timestamp": "2025-12-21T09:37:22.305501+00:00", "meta": {"OBJECT_NAME": "GAOFEN-2", "OBJECT_ID": "2014-049A", "EPOCH": "2025-12-21T04:31:58.967616", "MEAN_MOTION": 14.80621312, "ECCENTRICITY": 0.000873, "INCLINATION": 98.0378, "RA_OF_ASC_NODE": 54.3723, "ARG_OF_PERICENTER": 89.8282, "MEAN_ANOMALY": 270.393, "EPHEMERIS_TYPE": 0, "CLASSIFICATION_TYPE": "U", "NORAD_CAT_ID": 40118, "ELEMENT_SET_NO": 999, "REV_AT_EPOCH": 61289, "BSTAR": 5.7769e-05, "MEAN_MOTION_DOT": 3.9e-06, "MEAN_MOTION_DDOT": 0}, "tle": {"line1": "1 40118U 14049A   25355.18887694  .00000390  00000+0  57769-4 0  9992", "line2": "2 40118  98.0378  54.3723 0008730  89.8282 270.3930 14.80621312612898"}}, "geometry": {"type": "Point", "coordinates": [45.17912139203899, 49.1505480092231]}}, {"type": "Feature", "properties": {"norad_id": 40143, "name": "YAOGAN-21", "group": "resource", "lat": -81.40353350781857, "lon": 94.7710820379907, "alt_km": 502.87133485868253, "timestamp": "2025-12-21T09:37:22.305511+00:00", "meta": {"OBJECT_NAME": "YAOGAN-21", "OBJECT_ID": "2014-053A", "EPOCH": "2025-12-21T05:16:05.023776", "MEAN_MOTION": 15.23751572, "ECCENTRICITY": 0.0008924, "INCLINATION": 97.1744, "RA_OF_ASC_NODE": 38.1642, "ARG_OF_PERICENTER": 14.4578, "MEAN_ANOMALY": 345.6914, "EPHEMERIS_TYPE": 0, "CLASSIFICATION_TYPE": "U", "NORAD_CAT_ID": 40143, "ELEMENT_SET_NO": 999, "REV_AT_EPOCH": 62783, "BSTAR": 7.4563e-05, "MEAN_MOTION_DOT": 1.727e-05, "MEAN_MOTION_DDOT": 0}, "tle": {"line1": "1 40143U 14053A   25355.21950259  .00001727  00000+0  74563-4 0  9993", "line2": "2 40143  97.1744  38.1642 0008924  14.4578 345.6914 15.23751572627838"}}, "geometry": {"type": "Point", "coordinates": [94.7710820379907, -81.40353350781857]}}, {"type": "Feature", "properties": {"norad_id": 40275, "name": "YAOGAN-22", "group": "resource", "lat": 68.0813581358988, "lon": -12.907282097295637, "alt_km": 1197.3012866357176, "timestamp": "2025-12-21T09:37:22.305521+00:00", "meta": {"OBJECT_NAME": "YAOGAN-22", "OBJECT_ID": "2014-063A", "EPOCH": "2025-12-21T03:35:36.881088", "MEAN_MOTION": 13.15522896, "ECCENTRICITY": 0.0006033, "INCLINATION": 100.7427, "RA_OF_ASC_NODE": 138.6881, "ARG_OF_PERICENTER": 228.0657, "MEAN_ANOMALY": 131.9941, "EPHEMERIS_TYPE": 0, "CLASSIFICATION_TYPE": "U", "NORAD_CAT_ID": 40275, "ELEMENT_SET_NO": 999, "REV_AT_EPOCH": 53640, "BSTAR": 3.0794e-05, "MEAN_MOTION_DOT": -3.5e-07, "MEAN_MOTION_DDOT": 0}, "tle": {"line1": "1 40275U 14063A   25355.14973242 -.00000035  00000+0  30794-4 0  9999", "line2": "2 40275 100.7427 138.6881 0006033 228.0657 131.9941 13.15522896536406"}}, "geometry": {"type": "Point", "coordinates": [-12.907282097295637, 68.0813581358988]}}, {"type": "Feature", "properties": {"norad_id": 40298, "name": "ASNARO", "group": "resource", "lat": -14.112838870268467, "lon": -110.72725290633136, "alt_km": 511.92645120449106, "timestamp": "2025-12-21T09:37:22.305546+00:00", "meta": {"OBJECT_NAME": "ASNARO", "OBJECT_ID": "2014-070A", "EPOCH": "2025-12-21T04:01:51.303360", "MEAN_MOTION": 15.19651509, "ECCENTRICITY": 0.0005686, "INCLINATION": 97.3649, "RA_OF_ASC_NODE": 70.909, "ARG_OF_PERICENTER": 100.2472, "MEAN_ANOMALY": 259.9404, "EPHEMERIS_TYPE": 0, "CLASSIFICATION_TYPE": "U", "NORAD_CAT_ID": 40298, "ELEMENT_SET_NO": 999, "REV_AT_EPOCH": 61697, "BSTAR": 0.0003079, "MEAN_MOTION_DOT": 6.502e-05, "MEAN_MOTION_DDOT": 0}, "tle": {"line1": "1 40298U 14070A   25355.16795490  .00006502  00000+0  30790-3 0  9990", "line2": "2 40298  97.3649  70.9090 0005686 100.2472 259.9404 15.19651509616973"}}, "geometry": {"type": "Point", "coordinates": [-110.72725290633136, -14.112838870268467]}}, {"type": "Feature", "properties": {"norad_id": 40310, "name": "YAOGAN-24", "group": "resource", "lat": -73.77790948133466, "lon": -82.85847737585891, "alt_km": 657.2454436891221, "timestamp": "2025-12-21T09:37:22.305559+00:00", "meta": {"OBJECT_NAME": "YAOGAN-24", "OBJECT_ID": "2014-072A", "EPOCH": "2025-12-21T05:12:53.064576", "MEAN_MOTION": 14.76193499, "ECCENTRICITY": 0.0015133, "INCLINATION": 98.1227, "RA_OF_ASC_NODE": 126.3558, "ARG_OF_PERICENTER": 112.6312, "MEAN_ANOMALY": 247.65, "EPHEMERIS_TYPE": 0, "CLASSIFICATION_TYPE": "U", "NORAD_CAT_ID": 40310, "ELEMENT_SET_NO": 999, "REV_AT_EPOCH": 59746, "BSTAR": 0.00011998, "MEAN_MOTION_DOT": 7.78e-06, "MEAN_MOTION_DDOT": 0}, "tle": {"line1": "1 40310U 14072A   25355.21728084  .00000778  00000+0  11998-3 0  9996", "line2": "2 40310  98.1227 126.3558 0015133 112.6312 247.6500 14.76193499597466"}}, "geometry": {"type": "Point", "coordinates": [-82.85847737585891, -73.77790948133466]}}, {"type": "Feature", "properties": {"norad_id": 40336, "name": "CBERS 4", "group": "resource", "lat": 9.58962056636996, "lon": -125.46003767779065, "alt_km": 774.4633157862309, "timestamp": "2025-12-21T09:37:22.305571+00:00", "meta": {"OBJECT_NAME": "CBERS 4", "OBJECT_ID": "2014-079A", "EPOCH": "2025-12-21T03:48:51.297120", "MEAN_MOTION": 14.35520098, "ECCENTRICITY": 0.00018, "INCLINATION": 98.3302, "RA_OF_ASC_NODE": 52.8878, "ARG_OF_PERICENTER": 103.3356, "MEAN_ANOMALY": 256.8031, "EPHEMERIS_TYPE": 0, "CLASSIFICATION_TYPE": "U", "NORAD_CAT_ID": 40336, "ELEMENT_SET_NO": 999, "REV_AT_EPOCH": 57841, "BSTAR": -8.4944e-06, "MEAN_MOTION_DOT": -6.6e-07, "MEAN_MOTION_DDOT": 0}, "tle": {"line1": "1 40336U 14079A   25355.15892705 -.00000066  00000+0 -84944-5 0  9991", "line2": "2 40336  98.3302  52.8878 0001800 103.3356 256.8031 14.35520098578418"}}, "geometry": {"type": "Point", "coordinates": [-125.46003767779065, 9.58962056636996]}}, {"type": "Feature", "properties": {"norad_id": 40362, "name": "YAOGAN-26", "group": "resource", "lat": 59.86620030389291, "lon": -171.8987161785231, "alt_km": 443.02878797392987, "timestamp": "2025-12-21T09:37:22.305582+00:00", "meta": {"OBJECT_NAME": "YAOGAN-26", "OBJECT_ID": "2014-088A", "EPOCH": "2025-12-21T05:59:12.804864", "MEAN_MOTION": 15.3957967, "ECCENTRICITY": 0.0005041, "INCLINATION": 97.0633, "RA_OF_ASC_NODE": 355.6211, "ARG_OF_PERICENTER": 5.0106, "MEAN_ANOMALY": 355.119, "EPHEMERIS_TYPE": 0, "CLASSIFICATION_TYPE": "U", "NORAD_CAT_ID": 40362, "ELEMENT_SET_NO": 999, "REV_AT_EPOCH": 61025, "BSTAR": 0.0004521, "MEAN_MOTION_DOT": 0.00017738, "MEAN_MOTION_DDOT": 0}, "tle": {"line1": "1 40362U 14088A   25355.24945376  .00017738  00000+0  45210-3 0  9996", "line2": "2 40362  97.0633 355.6211 0005041   5.0106 355.1190 15.39579670610250"}}, "geometry": {"type": "Point", "coordinates": [-171.8987161785231, 59.86620030389291]}}, {"type": "Feature", "properties": {"norad_id": 40376, "name": "SMAP", "group": "resource", "lat": 20.225861628616755, "lon": -176.9814707663784, "alt_km": 682.0816101746568, "timestamp": "2025-12-21T09:37:22.305593+00:00", "meta": {"OBJECT_NAME": "SMAP", "OBJECT_ID": "2015-003A", "EPOCH": "2025-12-21T03:58:24.769344", "MEAN_MOTION": 14.63354538, "ECCENTRICITY": 0.0001227, "INCLINATION": 98.1288, "RA_OF_ASC_NODE": 359.7679, "ARG_OF_PERICENTER": 91.4521, "MEAN_ANOMALY": 268.6822, "EPHEMERIS_TYPE": 0, "CLASSIFICATION_TYPE": "U", "NORAD_CAT_ID": 40376, "ELEMENT_SET_NO": 999, "REV_AT_EPOCH": 58158, "BSTAR": 7.9596e-05, "MEAN_MOTION_DOT": 3.64e-06, "MEAN_MOTION_DDOT": 0}, "tle": {"line1": "1 40376U 15003A   25355.16556446  .00000364  00000+0  79596-4 0  9998", "line2": "2 40376  98.1288 359.7679 0001227  91.4521 268.6822 14.63354538581581"}}, "geometry": {"type": "Point", "coordinates": [-176.9814707663784, 20.225861628616755]}}, {"type": "Feature", "properties": {"norad_id": 40536, "name": "KOMPSAT-3A", "group": "resource", "lat": -24.933360937091578, "lon": 146.63083380400818, "alt_km": 439.8307820024256, "timestamp": "2025-12-21T09:37:22.305604+00:00", "meta": {"OBJECT_NAME": "KOMPSAT-3A", "OBJECT_ID": "2015-014A", "EPOCH": "2025-12-21T04:04:21.230688", "MEAN_MOTION": 15.44229678, "ECCENTRICITY": 0.0005499, "INCLINATION": 97.6794, "RA_OF_ASC_NODE": 329.9832, "ARG_OF_PERICENTER": 108.0107, "MEAN_ANOMALY": 252.174, "EPHEMERIS_TYPE": 0, "CLASSIFICATION_TYPE": "U", "NORAD_CAT_ID": 40536, "ELEMENT_SET_NO": 999, "REV_AT_EPOCH": 59425, "BSTAR": 0.00030409, "MEAN_MOTION_DOT": 0.00013887, "MEAN_MOTION_DDOT": 0}, "tle": {"line1": "1 40536U 15014A   25355.16969017  .00013887  00000+0  30409-3 0  9993", "line2": "2 40536  97.6794 329.9832 0005499 108.0107 252.1740 15.44229678594256"}}, "geometry": {"type": "Point", "coordinates": [146.63083380400818, -24.933360937091578]}}, {"type": "Feature", "properties": {"norad_id": 40697, "name": "SENTINEL-2A", "group": "resource", "lat": 80.11636945323013, "lon": -52.19890811637778, "alt_km": 780.8516065826498, "timestamp": "2025-12-21T09:37:22.305614+00:00", "meta": {"OBJECT_NAME": "SENTINEL-2A", "OBJECT_ID": "2015-028A", "EPOCH": "2025-12-21T04:08:45.530016", "MEAN_MOTION": 14.30808633, "ECCENTRICITY": 0.0001072, "INCLINATION": 98.5743, "RA_OF_ASC_NODE": 67.587, "ARG_OF_PERICENTER": 88.8104, "MEAN_ANOMALY": 271.3202, "EPHEMERIS_TYPE": 0, "CLASSIFICATION_TYPE": "U", "NORAD_CAT_ID": 40697, "ELEMENT_SET_NO": 999, "REV_AT_EPOCH": 54827, "BSTAR": 7.288e-05, "MEAN_MOTION_DOT": 1.47e-06, "MEAN_MOTION_DDOT": 0}, "tle": {"line1": "1 40697U 15028A   25355.17274919  .00000147  00000+0  72880-4 0  9992", "line2": "2 40697  98.5743  67.5870 0001072  88.8104 271.3202 14.30808633548275"}}, "geometry": {"type": "Point", "coordinates": [-52.19890811637778, 80.11636945323013]}}]}